{"type": "FeatureCollection", "features": [ {"type": "Feature", "properties": {"norad_id": 35602, "name": "COSMOS 2251 DEB", "group": "cosmos-2251-debris", "lat": -42.92147340809192, "lon": -5.896018585671829, "alt_km": 405.2620143955746, "timestamp": "2025-12-23T16:57:12.751159+00:00", "meta": {"OBJECT_NAME": "COSMOS 2251 DEB", "OBJECT_ID": "1993-036AMV", "EPOCH": "2025-12-21T22:26:51.012096", "MEAN_MOTION": 15.35414257, "ECCENTRICITY": 0.00887347, "INCLINATION": 73.9929, "RA_OF_ASC_NODE": 162.4295, "ARG_OF_PERICENTER": 226.1697, "MEAN_ANOMALY": 293.1785, "EPHEMERIS_TYPE": 0, "CLASSIFICATION_TYPE": "U", "NORAD_CAT_ID": 35602, "ELEMENT_SET_NO": 999, "REV_AT_EPOCH": 90232, "BSTAR": 0.00057034705, "MEAN_MOTION_DOT": 0.00022374, "MEAN_MOTION_DDOT": 0}, "tle": {"line1": "1 35602U 93036AMV 25355.93531264  .00022374  00000+0  57035-3 0  9990", "line2": "2 35602  73.9929 162.4295 0088734 226.1697 293.1785 15.35414257902327"}}, "geometry": {"type": "Point", "coordinates": [-5.896018585671829, -42.92147340809192]}}, {"type": "Feature", "properties": {"norad_id": 35605, "name": "COSMOS 2251 DEB", "group": "cosmos-2251-debris", "lat": -41.68725208730359, "lon": -62.12831989997051, "alt_km": 454.1351952043351, "timestamp": "2025-12-23T16:57:12.751169+00:00", "meta": {"OBJECT_NAME": "COSMOS 2251 DEB", "OBJECT_ID": "1993-036AMY", "EPOCH": "2025-12-22T14:36:44.008416", "MEAN_MOTION": 15.38179315, "ECCENTRICITY": 0.00228045, "INCLINATION": 73.869, "RA_OF_ASC_NODE": 315.1978, "ARG_OF_PERICENTER": 235.9327, "MEAN_ANOMALY": 123.9715, "EPHEMERIS_TYPE": 0, "CLASSIFICATION_TYPE": "U", "NORAD_CAT_ID": 35605, "ELEMENT_SET_NO": 999, "REV_AT_EPOCH": 66123, "BSTAR": 0.0066900453, "MEAN_MOTION_DOT": 0.00262511, "MEAN_MOTION_DDOT": 0}, "tle": {"line1": "1 35605U 93036AMY 25356.60884269  .00262511  00000+0  66900-2 0  9993", "line2": "2 35605  73.8690 315.1978 0022804 235.9327 123.9715 15.38179315661234"}}, "geometry": {"type": "Point", "coordinates": [-62.12831989997051, -41.68725208730359]}}, {"type": "Feature", "properties": {"norad_id": 35606, "name": "COSMOS 2251 DEB", "group": "cosmos-2251-debris", "lat": -34.9603193320325, "lon": -174.96361543942692, "alt_km": 785.952106018316, "timestamp": "2025-12-23T16:57:12.751179+00:00", "meta": {"OBJECT_NAME": "COSMOS 2251 DEB", "OBJECT_ID": "1993-036AMZ", "EPOCH": "2025-12-22T16:36:21.551904", "MEAN_MOTION": 13.41219032, "ECCENTRICITY": 0.04568187, "INCLINATION": 73.8097, "RA_OF_ASC_NODE": 354.9331, "ARG_OF_PERICENTER": 199.1781, "MEAN_ANOMALY": 159.163, "EPHEMERIS_TYPE": 0, "CLASSIFICATION_TYPE": "U", "NORAD_CAT_ID": 35606, "ELEMENT_SET_NO": 999, "REV_AT_EPOCH": 61173, "BSTAR": 0.00021075659, "MEAN_MOTION_DOT": 1.94e-06, "MEAN_MOTION_DDOT": 0}, "tle": {"line1": "1 35606U 93036AMZ 25356.69191611  .00000194  00000+0  21076-3 0  9998", "line2": "2 35606  73.8097 354.9331 0456818 199.1781 159.1630 13.41219032611731"}}, "geometry": {"type": "Point", "coordinates": [-174.96361543942692, -34.9603193320325]}}, {"type": "Feature", "properties": {"norad_id": 35611, "name": "COSMOS 2251 DEB", "group": "cosmos-2251-debris", "lat": 41.34582435980345, "lon": -36.68614959530526, "alt_km": 648.2907102636755, "timestamp": "2025-12-23T16:57:12.751189+00:00", "meta": {"OBJECT_NAME": "COSMOS 2251 DEB", "OBJECT_ID": "1993-036ANE", "EPOCH": "2025-12-19T11:16:40.848672", "MEAN_MOTION": 14.73020971, "ECCENTRICITY": 0.0021353, "INCLINATION": 74.0189, "RA_OF_ASC_NODE": 166.1787, "ARG_OF_PERICENTER": 238.9125, "MEAN_ANOMALY": 120.9952, "EPHEMERIS_TYPE": 0, "CLASSIFICATION_TYPE": "U", "NORAD_CAT_ID": 35611, "ELEMENT_SET_NO": 999, "REV_AT_EPOCH": 87389, "BSTAR": 0.0015718, "MEAN_MOTION_DOT": 0.0001012, "MEAN_MOTION_DDOT": 0}, "tle": {"line1": "1 35611U 93036ANE 25353.46991723  .00010120  00000+0  15718-2 0  9993", "line2": "2 35611  74.0189 166.1787 0021353 238.9125 120.9952 14.73020971873894"}}, "geometry": {"type": "Point", "coordinates": [-36.68614959530526, 41.34582435980345]}}, {"type": "Feature", "properties": {"norad_id": 35614, "name": "COSMOS 2251 DEB", "group": "cosmos-2251-debris", "lat": 21.065821382042078, "lon": -47.44064768118795, "alt_km": 707.6743644129565, "timestamp": "2025-12-23T16:57:12.751200+00:00", "meta": {"OBJECT_NAME": "COSMOS 2251 DEB", "OBJECT_ID": "1993-036ANH", "EPOCH": "2025-12-22T04:50:52.701504", "MEAN_MOTION": 14.67087782, "ECCENTRICITY": 0.00751415, "INCLINATION": 73.9595, "RA_OF_ASC_NODE": 309.1128, "ARG_OF_PERICENTER": 161.1452, "MEAN_ANOMALY": 199.2529, "EPHEMERIS_TYPE": 0, "CLASSIFICATION_TYPE": "U", "NORAD_CAT_ID": 35614, "ELEMENT_SET_NO": 999, "REV_AT_EPOCH": 87868, "BSTAR": 0.00075496675, "MEAN_MOTION_DOT": 4.392e-05, "MEAN_MOTION_DDOT": 0}, "tle": {"line1": "1 35614U 93036ANH 25356.20199886  .00004392  00000+0  75497-3 0  9996", "line2": "2 35614  73.9595 309.1128 0075141 161.1452 199.2529 14.67087782878685"}}, "geometry": {"type": "Point", "coordinates": [-47.44064768118795, 21.065821382042078]}}, {"type": "Feature", "properties": {"norad_id": 35645, "name": "COSMOS 2251 DEB", "group": "cosmos-2251-debris", "lat": -20.256073083842743, "lon": 61.099323500665356, "alt_km": 765.5902244948411, "timestamp": "2025-12-23T16:57:12.751210+00:00", "meta": {"OBJECT_NAME": "COSMOS 2251 DEB", "OBJECT_ID": "1993-036ANL", "EPOCH": "2025-12-21T21:52:19.623936", "MEAN_MOTION": 14.45702684, "ECCENTRICITY": 0.00697421, "INCLINATION": 73.9649, "RA_OF_ASC_NODE": 70.5529, "ARG_OF_PERICENTER": 227.2337, "MEAN_ANOMALY": 132.2942, "EPHEMERIS_TYPE": 0, "CLASSIFICATION_TYPE": "U", "NORAD_CAT_ID": 35645, "ELEMENT_SET_NO": 999, "REV_AT_EPOCH": 86904, "BSTAR": 0.0018299247, "MEAN_MOTION_DOT": 6.654e-05, "MEAN_MOTION_DDOT": 0}, "tle": {"line1": "1 35645U 93036ANL 25355.91133824  .00006654  00000+0  18299-2 0  9996", "line2": "2 35645  73.9649  70.5529 0069742 227.2337 132.2942 14.45702684869046"}}, "geometry": {"type": "Point", "coordinates": [61.099323500665356, -20.256073083842743]}}, {"type": "Feature", "properties": {"norad_id": 35646, "name": "COSMOS 2251 DEB", "group": "cosmos-2251-debris", "lat": 71.9506616326984, "lon": 101.23996456828019, "alt_km": 942.8194694334088, "timestamp": "2025-12-23T16:57:12.751220+00:00", "meta": {"OBJECT_NAME": "COSMOS 2251 DEB", "OBJECT_ID": "1993-036ANM", "EPOCH": "2025-12-22T19:39:20.278080", "MEAN_MOTION": 13.40833248, "ECCENTRICITY": 0.04560319, "INCLINATION": 73.8715, "RA_OF_ASC_NODE": 40.0356, "ARG_OF_PERICENTER": 148.5212, "MEAN_ANOMALY": 335.9889, "EPHEMERIS_TYPE": 0, "CLASSIFICATION_TYPE": "U", "NORAD_CAT_ID": 35646, "ELEMENT_SET_NO": 999, "REV_AT_EPOCH": 81993, "BSTAR": 0.00038990225, "MEAN_MOTION_DOT": 3.77e-06, "MEAN_MOTION_DDOT": 0}, "tle": {"line1": "1 35646U 93036ANM 25356.81898470  .00000377  00000+0  38990-3 0  9999", "line2": "2 35646  73.8715  40.0356 0456031 148.5212 335.9889 13.40833248819938"}}, "geometry": {"type": "Point", "coordinates": [101.23996456828019, 71.9506616326984]}}, {"type": "Feature", "properties": {"norad_id": 35647, "name": "COSMOS 2251 DEB", "group": "cosmos-2251-debris", "lat": -28.640942609217184, "lon": -94.8349033955739, "alt_km": 726.8756998441213, "timestamp": "2025-12-23T16:57:12.751230+00:00", "meta": {"OBJECT_NAME": "COSMOS 2251 DEB", "OBJECT_ID": "1993-036ANN", "EPOCH": "2025-12-20T12:35:18.566880", "MEAN_MOTION": 14.43670529, "ECCENTRICITY": 0.0045979, "INCLINATION": 74.0241, "RA_OF_ASC_NODE": 280.0829, "ARG_OF_PERICENTER": 17.3675, "MEAN_ANOMALY": 342.9041, "EPHEMERIS_TYPE": 0, "CLASSIFICATION_TYPE": "U", "NORAD_CAT_ID": 35647, "ELEMENT_SET_NO": 999, "REV_AT_EPOCH": 67776, "BSTAR": 0.00050731, "MEAN_MOTION_DOT": 1.718e-05, "MEAN_MOTION_DDOT": 0}, "tle": {"line1": "1 35647U 93036ANN 25354.52452045  .00001718  00000+0  50731-3 0  9997", "line2": "2 35647  74.0241 280.0829 0045979  17.3675 342.9041 14.43670529677764"}}, "geometry": {"type": "Point", "coordinates": [-94.8349033955739, -28.640942609217184]}}, {"type": "Feature", "properties": {"norad_id": 35650, "name": "COSMOS 2251 DEB", "group": "cosmos-2251-debris", "lat": -69.13338566772975, "lon": -51.47272786571451, "alt_km": 628.7054688790258, "timestamp": "2025-12-23T16:57:12.751240+00:00", "meta": {"OBJECT_NAME": "COSMOS 2251 DEB", "OBJECT_ID": "1993-036ANR", "EPOCH": "2025-12-21T00:43:00.521760", "MEAN_MOTION": 14.83815616, "ECCENTRICITY": 0.00149589, "INCLINATION": 74.045, "RA_OF_ASC_NODE": 2.46, "ARG_OF_PERICENTER": 46.0258, "MEAN_ANOMALY": 346.2318, "EPHEMERIS_TYPE": 0, "CLASSIFICATION_TYPE": "U", "NORAD_CAT_ID": 35650, "ELEMENT_SET_NO": 999, "REV_AT_EPOCH": 87757, "BSTAR": 0.0010844283, "MEAN_MOTION_DOT": 8.984e-05, "MEAN_MOTION_DDOT": 0}, "tle": {"line1": "1 35650U 93036ANR 25355.02986715  .00008984  00000+0  10844-2 0  9995", "line2": "2 35650  74.0450   2.4600 0014958  46.0258 346.2318 14.83815616877579"}}, "geometry": {"type": "Point", "coordinates": [-51.47272786571451, -69.13338566772975]}}, {"type": "Feature", "properties": {"norad_id": 35660, "name": "COSMOS 2251 DEB", "group": "cosmos-2251-debris", "lat": -31.212466371090454, "lon": 102.66592364829359, "alt_km": 725.9501466895572, "timestamp": "2025-12-23T16:57:12.751250+00:00", "meta": {"OBJECT_NAME": "COSMOS 2251 DEB", "OBJECT_ID": "1993-036APB", "EPOCH": "2025-12-22T02:10:51.745152", "MEAN_MOTION": 14.49959651, "ECCENTRICITY": 0.002078, "INCLINATION": 74.0442, "RA_OF_ASC_NODE": 115.6794, "ARG_OF_PERICENTER": 262.6258, "MEAN_ANOMALY": 275.2762, "EPHEMERIS_TYPE": 0, "CLASSIFICATION_TYPE": "U", "NORAD_CAT_ID": 35660, "ELEMENT_SET_NO": 999, "REV_AT_EPOCH": 66006, "BSTAR": 0.00046816232, "MEAN_MOTION_DOT": 1.789e-05, "MEAN_MOTION_DDOT": 0}, "tle": {"line1": "1 35660U 93036APB 25356.09087668  .00001789  00000+0  46816-3 0  9998", "line2": "2 35660  74.0442 115.6794 0020780 262.6258 275.2762 14.49959651660066"}}, "geometry": {"type": "Point", "coordinates": [102.66592364829359, -31.212466371090454]}}]}